{
  "norad_id": 65418,
  "name": "STARLINK-34997",
  "history": [
    {
      "epoch": "2026-03-28T13:31:26.531328Z",
      "apogee_km": 476.1093557223212,
      "perigee_km": 474.300073509663,
      "latitude_deg": -2.736486550736523e-05,
      "longitude_deg": 115.86118417453247,
      "height_km": 475.9357516981607,
      "semi_major_axis_km": 6853.341714615992,
      "eccentricity": 0.000132,
      "inclination_deg": 53.1601,
      "raan_deg": 144.7039,
      "arg_perigee_deg": 79.3607,
      "mean_anomaly_deg": 280.7542,
      "mean_motion_rev_day": 15.30203468
    }
  ]
}